ORBCOMM FM20            
1 25416U 98046D   24230.83918480  .00004267  00000+0  15139-2 0  9996
2 25416  44.9927 176.3199 0001461 320.2367  39.8373 14.35624681360648
ORBCOMM FM16            
1 25417U 98046E   24230.86451266  .00006245  00000+0  21437-2 0  9990
2 25417  44.9925 171.1708 0003102 235.6959 124.3595 14.36751690360598
ORBCOMM FM15            
1 25418U 98046F   24230.91046179  .00005073  00000+0  17611-2 0  9997
2 25418  44.9957 175.2567 0002926 242.8377 117.2173 14.36451616360609
ORBCOMM FM14            
1 25419U 98046G   24231.20005002  .00004852  00000+0  16794-2 0  9996
2 25419  44.9947 172.8476 0001599 248.5552 111.5125 14.36670352360822
ORBCOMM FM13            
1 25420U 98046H   24230.88132260  .00005055  00000+0  17763-2 0  9991
2 25420  44.9959 179.8203 0003521 213.4984 146.5641 14.35854665359615
ORBCOMM FM21            
1 25475U 98053A   24230.49053527  .00003417  00000+0  12196-2 0  9999
2 25475  45.0072 266.1466 0002052 257.5048 102.5570 14.35734607353577
ORBCOMM FM22            
1 25476U 98053B   24231.12460069  .00004503  00000+0  15722-2 0  9999
2 25476  45.0063 259.9999 0001629 214.8307 145.2435 14.36344724354025
ORBCOMM FM23            
1 25477U 98053C   24230.44592976  .00003485  00000+0  12421-2 0  9998
2 25477  45.0073 268.7481 0001649 230.0104 130.0598 14.35770979353719
